[{"OBJECT_NAME":"ION SCV-004","OBJECT_ID":"2022-002K","EPOCH":"2026-03-09T16:32:03.244416","MEAN_MOTION":15.29369331,"ECCENTRICITY":0.00072157,"INCLINATION":97.2961,"RA_OF_ASC_NODE":128.2294,"ARG_OF_PERICENTER":1.6783,"MEAN_ANOMALY":358.448,"EPHEMERIS_TYPE":0,"CLASSIFICATION_TYPE":"U","NORAD_CAT_ID":50993,"ELEMENT_SET_NO":999,"REV_AT_EPOCH":23008,"BSTAR":0.00023198467,"MEAN_MOTION_DOT":6.538e-5,"MEAN_MOTION_DDOT":0},{"OBJECT_NAME":"STARLINK-35895","OBJECT_ID":"2025-254G","EPOCH":"2026-03-09T18:26:56.822208","MEAN_MOTION":15.30192194,"ECCENTRICITY":0.00012015,"INCLINATION":53.1594,"RA_OF_ASC_NODE":232.3907,"ARG_OF_PERICENTER":75.9141,"MEAN_ANOMALY":284.1993,"EPHEMERIS_TYPE":0,"CLASSIFICATION_TYPE":"U","NORAD_CAT_ID":66354,"ELEMENT_SET_NO":999,"REV_AT_EPOCH":1898,"BSTAR":0.00091523717,"MEAN_MOTION_DOT":0.00026839,"MEAN_MOTION_DDOT":0}]
