ION SCV-004             
1 50993U 22002K   26068.68892644  .00006538  00000+0  23198-3 0  9998
2 50993  97.2961 128.2294 0007216   1.6783 358.4480 15.29369331230088
STARLINK-35895          
1 66354U 25254G   26068.76871322  .00026839  00000+0  91524-3 0  9991
2 66354  53.1594 232.3907 0001201  75.9141 284.1993 15.30192194 18987
